IRIDIUM 7               
1 24793U 97020B   24276.93601726  .00001983  00000+0  68371-3 0  9996
2 24793  86.3897 284.6894 0002044  93.7253 266.4177 14.35460552434984
IRIDIUM 5               
1 24795U 97020D   24276.76829825  .00023184  00000+0  21147-2 0  9997
2 24795  86.3971 201.9481 0116853 341.3278  18.3676 14.89848160447072
IRIDIUM 4               
1 24796U 97020E   24276.87338477  .00001983  00000+0  67128-3 0  9991
2 24796  86.3893 281.7586 0002191  88.1076 272.0371 14.36385851435522
IRIDIUM 914             
1 24836U 97030A   24276.75318020  .00002206  00000+0  69078-3 0  9991
2 24836  86.3881 291.1898 0002608  49.8828 310.2600 14.40287455570062
IRIDIUM 16              
1 24841U 97030F   24276.46915878  .00001871  00000+0  61022-3 0  9997
2 24841  86.4019 313.5828 0002887 140.9636 219.1771 14.38181622429956
IRIDIUM 911             
1 24842U 97030G   24276.37532641  .00002548  00000+0  69625-3 0  9990
2 24842  86.4442 312.6513 0012449 231.3984 128.6105 14.46909652437790
IRIDIUM 17              
1 24870U 97034B   24276.71465031  .00002060  00000+0  68482-3 0  9990
2 24870  86.4002 343.0461 0003574 112.5464 247.6112 14.37292946426592
IRIDIUM 920             
1 24871U 97034C   24276.65479608  .00001861  00000+0  57298-3 0  9990
2 24871  86.3980 322.9016 0010638 201.2277 158.8483 14.40988802429488
